{"fetched_at":"2026-03-29T02:12:04Z","count":15717,"tles":[{"name":"KINEIS-4C","line1":"1 63301U 25056B   26086.91254573 -.00000310  00000+0 -41378-4 0  9991","line2":"2 63301  97.9794 213.0752 0001892 158.4621 201.6666 14.72306595 55174","category":"Other"}]}